OBJECT_NAME,OBJECT_ID,EPOCH,MEAN_MOTION,ECCENTRICITY,INCLINATION,RA_OF_ASC_NODE,ARG_OF_PERICENTER,MEAN_ANOMALY,EPHEMERIS_TYPE,CLASSIFICATION_TYPE,NORAD_CAT_ID,ELEMENT_SET_NO,REV_AT_EPOCH,BSTAR,MEAN_MOTION_DOT,MEAN_MOTION_DDOT
DMSP 5D-3 F16 (USA 172),2003-048A,2026-07-07T14:47:16.171296,14.14484941,.00082172,98.9886,212.5791,89.7504,15.7086,0,U,28054,999,17237,.22458322E-4,-.2E-7,0
METEOSAT-9 (MSG-2),2005-049B,2026-07-07T05:24:18.847296,1.00268823,.00021611,9.4037,53.9656,0.5612,357.4517,0,U,28912,999,719,0,.133E-5,0
DMSP 5D-3 F17 (USA 191),2006-050A,2026-07-07T14:31:32.622816,14.14995903,.00101828,98.7382,194.7577,4.7689,355.3580,0,U,29522,999,1531,.36587873E-4,.27E-6,0
FENGYUN 3A,2008-026A,2026-07-07T06:37:33.220416,14.19575424,.00098592,98.6886,128.7338,72.3325,287.8927,0,U,32958,999,93825,.4962596E-4,.61E-6,0
GOES 14,2009-033A,2026-07-07T14:38:39.489792,1.00102314,.00020121,1.7392,82.7972,34.6201,157.5740,0,U,35491,999,679,0,-.334E-5,0
DMSP 5D-3 F18 (USA 210),2009-057A,2026-07-07T13:52:12.626688,14.14907973,.00107635,98.9049,169.3038,187.1354,172.9668,0,U,35951,999,86247,.13200459E-3,.21E-5,0
EWS-G2 (GOES 15),2010-008A,2026-07-07T12:20:15.738720,1.00268160,.00053059,1.3302,82.5686,50.9416,40.4457,0,U,36411,999,5984,0,.36E-6,0
COMS 1,2010-032A,2026-07-07T00:02:01.505184,0.99169409,.00114407,4.8529,75.1185,14.6993,190.2555,0,U,36744,999,5128,0,-.175E-5,0
FENGYUN 3B,2010-059A,2026-07-07T14:35:53.981952,14.14846751,.00229409,98.9606,234.7085,127.0444,336.1613,0,U,37214,999,81031,.59236607E-4,.7E-6,0
SUOMI NPP,2011-061A,2026-07-07T13:40:49.416960,14.19521524,.00005616,98.7955,129.3072,271.9046,88.2066,0,U,37849,999,76133,.45934371E-4,.52E-6,0
METEOSAT-10 (MSG-3),2012-035B,2026-07-07T06:54:10.581408,1.00269748,.00012865,4.7161,60.9176,18.9815,308.9890,0,U,38552,999,5105,0,.5E-7,0
METOP-B,2012-049A,2026-07-07T12:46:56.285760,14.21444907,.00011151,98.6493,239.6248,302.5643,57.5427,0,U,38771,999,71615,.49929119E-4,.66E-6,0
INSAT-3D,2013-038B,2026-07-07T14:38:39.559776,1.00272480,.0000512,1.9755,82.2905,58.9626,133.5122,0,U,39216,999,4728,0,-.325E-5,0
FENGYUN 3C,2013-052A,2026-07-07T14:38:03.812640,14.15759567,.00140324,98.4992,161.5480,329.0539,30.9808,0,U,39260,999,66145,.53536408E-4,.64E-6,0
METEOR-M 2,2014-037A,2026-07-07T15:05:50.697600,14.21467681,.00056371,98.5130,163.6443,350.3599,9.7470,0,U,40069,999,62222,.93057235E-4,.161E-5,0
HIMAWARI-8,2014-060A,2026-07-07T14:24:54.812160,1.00270429,.00008929,0.0378,276.9306,204.1337,161.3961,0,U,40267,999,4296,0,-.26E-5,0
FENGYUN 2G,2014-090A,2026-07-07T14:13:13.708128,1.00264085,.00038496,5.6872,72.5733,150.3506,15.3877,0,U,40367,999,4220,0,-.288E-5,0
METEOSAT-11 (MSG-4),2015-034A,2026-07-07T06:56:47.830272,1.00269388,.00022492,3.2505,70.9853,350.9491,336.7955,0,U,40732,999,741,0,.75E-6,0
ELEKTRO-L 2,2015-074A,2026-07-07T05:55:00.833952,1.00273381,.00006018,6.7409,70.2783,240.8898,48.2797,0,U,41105,999,3870,0,-.106E-5,0
SENTINEL-3A,2016-011A,2026-07-07T13:18:05.676768,14.26738331,.00014102,98.6240,255.6445,92.5880,267.5462,0,U,41335,999,54096,.48232933E-4,.73E-6,0
INSAT-3DR,2016-054A,2026-07-07T15:06:39.288960,1.00272243,.00104495,0.0500,89.4834,181.2251,315.5469,0,U,41752,999,3602,0,-.62E-6,0
HIMAWARI-9,2016-064A,2026-07-06T23:01:03.045792,1.00271383,.00022065,0.0138,10.3948,162.3808,238.1863,0,U,41836,999,3540,0,0,0
GOES 16,2016-071A,2026-07-07T13:14:53.780640,1.00271495,.00004942,0.3880,85.6370,70.8142,223.1066,0,U,41866,999,3530,0,-.76E-6,0
FENGYUN 4A,2016-077A,2026-07-07T12:37:28.834752,1.00272996,.00081617,2.3708,80.0644,157.9323,0.6473,0,U,41882,999,3513,0,-.343E-5,0
CYGFM05,2016-078A,2026-07-07T05:55:30.578016,15.57578683,.00074682,34.9560,127.6686,322.9181,37.1027,0,U,41884,999,53188,.24616851E-3,.18785E-3,0
CYGFM04,2016-078B,2026-07-07T03:41:05.561376,15.62704475,.00055783,34.9321,94.9485,358.8214,1.2498,0,U,41885,999,53212,.26973782E-3,.25085E-3,0
CYGFM02,2016-078C,2026-07-07T02:45:18.423648,15.65904314,.00064898,34.9397,89.1424,3.0984,356.9782,0,U,41886,999,53229,.29063483E-3,.30735E-3,0
CYGFM01,2016-078D,2026-07-07T05:26:23.096544,15.58285664,.00074136,34.9388,128.6947,316.9964,43.0180,0,U,41887,999,53183,.25095967E-3,.19674E-3,0
CYGFM08,2016-078E,2026-07-07T03:37:20.330400,15.61111887,.00077481,34.9424,108.2367,348.0053,12.0487,0,U,41888,999,53209,.26934484E-3,.2355E-3,0
CYGFM07,2016-078G,2026-07-07T04:08:44.826720,15.61221304,.00059678,34.9442,96.4152,0.1266,359.9460,0,U,41890,999,53212,.263037E-3,.2308E-3,0
CYGFM03,2016-078H,2026-07-07T03:27:09.897120,15.61208080,.00060873,34.9394,98.5399,346.3478,13.7082,0,U,41891,999,53209,.2678316E-3,.23492E-3,0
